NORAD_CAT_ID,OBJECT_NAME,OBJECT_TYPE,EPOCH,MEAN_MOTION,ECCENTRICITY,INCLINATION,RA_OF_ASC_NODE,ARG_OF_PERICENTER,MEAN_ANOMALY,BSTAR,MEAN_MOTION_DOT,MEAN_MOTION_DDOT,TLE_LINE0,TLE_LINE1,TLE_LINE2,SEMIMAJOR_AXIS,PERIOD,APOGEE,PERIGEE,DECAYED
51869.0,STARLINK-3588,PAYLOAD,2022-12-26 14:43:08,15.08837275,0.0002527,53.2134,217.322,46.1631,313.957,1.0726e-05,-1.18e-06,0.0,0 STARLINK-3588,1 51869U 22022T   22360.61329242 -.00000118  00000-0  10726-4 0  9990,2 51869  53.2134 217.3220 0002527  46.1631 313.9570 15.08837275 46625,6917.889,95.438,541.502,538.006,0.0
51869.0,STARLINK-3588,PAYLOAD,2022-12-27 00:15:27,15.08835253,0.0002524,53.2133,215.5375,46.7764,313.3439,-4.8779e-05,-1.065e-05,0.0,0 STARLINK-3588,1 51869U 22022T   22361.01073619 -.00001065  00000-0 -48779-4 0  9991,2 51869  53.2133 215.5375 0002524  46.7764 313.3439 15.08835253 46683,6917.895,95.438,541.506,538.014,0.0
51869.0,STARLINK-3588,PAYLOAD,2022-12-27 14:33:55,15.08838565,0.0002545,53.2134,212.8612,46.9512,313.1693,6.8897e-05,8.08e-06,0.0,0 STARLINK-3588,1 51869U 22022T   22361.60689082  .00000808  00000-0  68897-4 0  9998,2 51869  53.2134 212.8612 0002545  46.9512 313.1693 15.08838565 46773,6917.885,95.438,541.51,537.989,0.0
51869.0,STARLINK-3588,PAYLOAD,2022-12-28 00:06:13,15.08842836,0.0002537,53.2133,211.0765,49.0162,311.1049,0.00010352,1.36e-05,0.0,0 STARLINK-3588,1 51869U 22022T   22362.00432712  .00001360  00000-0  10352-3 0  9995,2 51869  53.2133 211.0765 0002537  49.0162 311.1049 15.08842836 46834,6917.871999999999,95.437,541.492,537.982,0.0
51869.0,STARLINK-3588,PAYLOAD,2022-12-29 06:18:34,15.0883083,0.0002609,53.2131,205.4263,47.1552,312.9659,1.2174e-05,-9.5e-07,0.0,0 STARLINK-3588,1 51869U 22022T   22363.26290040 -.00000095  00000-0  12174-4 0  9990,2 51869  53.2131 205.4263 0002609  47.1552 312.9659 15.08830830 47023,6917.908,95.438,541.578,537.969,0.0
51869.0,STARLINK-3588,PAYLOAD,2022-12-29 20:37:04,15.08817477,0.0002269,53.2136,202.7481,39.8988,320.217,-0.00017956,-3.143e-05,0.0,0 STARLINK-3588,1 51869U 22022T   22363.85907881 -.00003143  00000-0 -17956-3 0  9993,2 51869  53.2136 202.7481 0002269  39.8988 320.2170 15.08817477 47115,6917.949000000001,95.439,541.384,538.245,0.0
51869.0,STARLINK-3588,PAYLOAD,2022-12-30 12:30:55,15.08823148,0.0002239,53.2153,199.7755,42.6949,317.4217,-2.7832e-05,-7.31e-06,0.0,0 STARLINK-3588,1 51869U 22022T   22364.52147760 -.00000731  00000-0 -27832-4 0  9995,2 51869  53.2153 199.7755 0002239  42.6949 317.4217 15.08823148 47212,6917.932,95.439,541.346,538.248,0.0
51869.0,STARLINK-3588,PAYLOAD,2022-12-30 17:17:04,15.08833976,0.0002453,53.2122,198.8831,42.7419,317.3763,8.0207e-05,9.88e-06,0.0,0 STARLINK-3588,1 51869U 22022T   22364.72018807  .00000988  00000-0  80207-4 0  9993,2 51869  53.2122 198.8831 0002453  42.7419 317.3763 15.08833976 47242,6917.899,95.438,541.461,538.067,0.0
51869.0,STARLINK-3588,PAYLOAD,2022-12-31 06:00:09,15.08839983,0.00025,53.2132,196.5046,43.788,316.331,0.00013196,1.812e-05,0.0,0 STARLINK-3588,1 51869U 22022T   22365.25010572  .00001812  00000-0  13196-3 0  9992,2 51869  53.2132 196.5046 0002500  43.7880 316.3310 15.08839983 47322,6917.88,95.438,541.475,538.016,0.0
51869.0,STARLINK-3588,PAYLOAD,2022-12-31 17:07:50,15.08842194,0.0002421999999999,53.2132,194.4228,43.2177,316.9004,0.00016328,2.311e-05,0.0,0 STARLINK-3588,1 51869U 22022T   22365.71378433  .00002311  00000-0  16328-3 0  9991,2 51869  53.2132 194.4228 0002422  43.2177 316.9004 15.08842194 47399,6917.874,95.437,541.414,538.063,0.0
51869.0,STARLINK-3588,PAYLOAD,2022-12-31 18:43:14,15.08835274,0.0002368,53.213,194.1254,44.6245,315.4938,0.00030503,4.569e-05,0.0,0 STARLINK-3588,1 51869U 22022T   22365.78002662  .00004569  00000-0  30503-3 0  9994,2 51869  53.2130 194.1254 0002368  44.6245 315.4938 15.08835274 47406,6917.895,95.438,541.398,538.122,0.0
51869.0,STARLINK-3588,PAYLOAD,2023-01-01 12:12:28,15.0884551,0.0002601,53.2127,190.8542,48.6179,311.5037,0.00019332,2.79e-05,0.0,0 STARLINK-3588,1 51869U 22022T   23001.50866690  .00002790  00000-0  19332-3 0  9992,2 51869  53.2127 190.8542 0002601  48.6179 311.5037 15.08845510 47518,6917.864000000001,95.437,541.528,537.929,0.0
51869.0,STARLINK-3588,PAYLOAD,2023-01-01 18:34:01,15.08842883,0.0002647,53.2127,189.6651,49.1624,310.9597,3.2651e-05,2.31e-06,0.0,0 STARLINK-3588,1 51869U 22022T   23001.77362808  .00000231  00000-0  32651-4 0  9991,2 51869  53.2127 189.6651 0002647  49.1624 310.9597 15.08842883 47554,6917.871999999999,95.437,541.568,537.905,0.0
51869.0,STARLINK-3588,PAYLOAD,2023-01-01 20:09:24,15.08842582,0.0002568,53.2125,189.3675,48.5231,311.5982,2.5492e-06,-2.48e-06,0.0,0 STARLINK-3588,1 51869U 22022T   23001.83986795 -.00000248  00000-0  25492-5 0  9990,2 51869  53.2125 189.3675 0002568  48.5231 311.5982 15.08842582 47566,6917.871999999999,95.437,541.514,537.961,0.0
51869.0,STARLINK-3588,PAYLOAD,2023-01-02 12:03:15,15.08850144,0.0002571,53.2133,186.3934,49.8256,310.2961,5.3685e-05,5.66e-06,0.0,0 STARLINK-3588,1 51869U 22022T   23002.50226273  .00000566  00000-0  53685-4 0  9999,2 51869  53.2133 186.3934 0002571  49.8256 310.2961 15.08850144 47662,6917.849,95.437,541.493,537.936,0.0
51869.0,STARLINK-3588,PAYLOAD,2023-01-02 20:00:10,15.08851616,0.0002576,53.2134,184.9067,50.1213,310.0005,3.6696e-05,2.96e-06,0.0,0 STARLINK-3588,1 51869U 22022T   23002.83345944  .00000296  00000-0  36696-4 0  9995,2 51869  53.2134 184.9067 0002576  50.1213 310.0005 15.08851616 47715,6917.845,95.437,541.492,537.928,0.0
51869.0,STARLINK-3588,PAYLOAD,2023-01-03 11:54:01,15.08850417,0.0002568,53.2138,181.9329,50.3254,309.7965,0.00015411,2.166e-05,0.0,0 STARLINK-3588,1 51869U 22022T   23003.49585326  .00002166  00000-0  15411-3 0  9997,2 51869  53.2138 181.9329 0002568  50.3254 309.7965 15.08850417 47814,6917.849,95.437,541.49,537.937,0.0
51869.0,STARLINK-3588,PAYLOAD,2023-01-03 21:26:21,15.0883677,0.0002609,53.2141,180.1492,52.0141,308.1086,1.7363e-05,-1.2e-07,0.0,0 STARLINK-3588,1 51869U 22022T   23003.89330560 -.00000012  00000-0  17363-4 0  9997,2 51869  53.2141 180.1492 0002609  52.0141 308.1086 15.08836770 47879,6917.89,95.438,541.56,537.95,0.0
51869.0,STARLINK-3588,PAYLOAD,2023-01-04 11:44:49,15.08846976,0.0002499,53.2132,177.4718,52.3012,307.8207,5.8314e-05,6.4e-06,0.0,0 STARLINK-3588,1 51869U 22022T   23004.48945706  .00000640  00000-0  58314-4 0  9994,2 51869  53.2132 177.4718 0002499  52.3012 307.8207 15.08846976 47966,6917.859,95.437,541.453,537.995,0.0
51869.0,STARLINK-3588,PAYLOAD,2023-01-04 18:06:21,15.08851236,0.0002609,53.2131,176.2826,51.7997,308.3229,9.4716e-05,1.22e-05,0.0,0 STARLINK-3588,1 51869U 22022T   23004.75441248  .00001220  00000-0  94716-4 0  9997,2 51869  53.2131 176.2826 0002609  51.7997 308.3229 15.08851236 48001,6917.846,95.437,541.516,537.906,0.0
51869.0,STARLINK-3588,PAYLOAD,2023-01-05 06:49:29,15.08747829,0.0002081,53.2142,173.9056,68.7343,291.3871,0.0017029,0.00026849,0.0,0 STARLINK-3588,1 51869U 22022T   23005.28437115  .00026849  00000-0  17029-2 0  9998,2 51869  53.2142 173.9056 0002081  68.7343 291.3871 15.08747829 48083,6918.1619999999975,95.443,541.467,538.587,0.0
51869.0,STARLINK-3588,PAYLOAD,2023-01-05 11:35:35,15.08844683,0.0002569,53.2136,173.012,51.2682,308.8540000000001,0.00014639,2.042e-05,0.0,0 STARLINK-3588,1 51869U 22022T   23005.48305153  .00002042  00000-0  14639-3 0  9990,2 51869  53.2136 173.0120 0002569  51.2682 308.8540 15.08844683 48110,6917.866,95.437,541.508,537.9540000000002,0.0
51869.0,STARLINK-3588,PAYLOAD,2023-01-05 17:57:08,15.08844347,0.0002529999999999,53.2133,171.8219,49.8284,310.2929,0.00014914,2.086e-05,0.0,0 STARLINK-3588,1 51869U 22022T   23005.74801138  .00002086  00000-0  14914-3 0  9997,2 51869  53.2133 171.8219 0002530  49.8284 310.2929 15.08844347 48150,6917.8669999999975,95.437,541.482,537.982,0.0
51869.0,STARLINK-3588,PAYLOAD,2023-01-06 11:26:22,15.08837007,0.000254,53.2139,168.5546,58.0266,302.0972,-0.00011757,-2.159e-05,0.0,0 STARLINK-3588,1 51869U 22022T   23006.47665479 -.00002159  00000-0 -11757-3 0  9999,2 51869  53.2139 168.5546 0002540  58.0266 302.0972 15.08837007 48269,6917.89,95.438,541.512,537.997,0.0
51869.0,STARLINK-3588,PAYLOAD,2023-01-06 19:23:19,15.08830017,0.0002612,53.2139,167.0639,50.1023,310.0198,-0.00010999,-2.038e-05,0.0,0 STARLINK-3588,1 51869U 22022T   23006.80786692 -.00002038  00000-0 -10999-3 0  9990,2 51869  53.2139 167.0639 0002612  50.1023 310.0198 15.08830017 48319,6917.911,95.438,541.5830000000002,537.969,0.0
51869.0,STARLINK-3588,PAYLOAD,2023-01-06 20:58:42,15.08829749,0.0002622,53.2139,166.7666,49.8912,310.231,-0.00011516,-2.12e-05,0.0,0 STARLINK-3588,1 51869U 22022T   23006.87410755 -.00002120  00000-0 -11516-3 0  9999,2 51869  53.2139 166.7666 0002622  49.8912 310.2310 15.08829749 48327,6917.911999999998,95.438,541.591,537.9630000000002,0.0
51869.0,STARLINK-3588,PAYLOAD,2023-01-07 03:20:14,15.08836455,0.000246,53.2138,165.5772,48.1117,312.0085,-6.6054e-05,-1.339e-05,0.0,0 STARLINK-3588,1 51869U 22022T   23007.13906198 -.00001339  00000-0 -66054-4 0  9999,2 51869  53.2138 165.5772 0002460  48.1117 312.0085 15.08836455 48365,6917.891,95.438,541.4580000000002,538.054,0.0
51869.0,STARLINK-3588,PAYLOAD,2023-01-07 19:14:06,15.08836616,0.0002499,53.2144,162.6031,48.3155,311.8051,5.6779e-06,-1.98e-06,0.0,0 STARLINK-3588,1 51869U 22022T   23007.80146262 -.00000198  00000-0  56779-5 0  9996,2 51869  53.2144 162.6031 0002499  48.3155 311.8051 15.08836616 48464,6917.891,95.438,541.485,538.0269999999998,0.0
51869.0,STARLINK-3588,PAYLOAD,2023-01-08 12:43:21,15.08831126,0.0002039,53.2145,159.332,46.6225,313.4937,0.00014349,1.996e-05,0.0,0 STARLINK-3588,1 51869U 22022T   23008.53010425  .00001996  00000-0  14349-3 0  9999,2 51869  53.2145 159.3320 0002039  46.6225 313.4937 15.08831126 48572,6917.908,95.438,541.183,538.362,0.0
